{
  "type": "FeatureCollection",
  "features": [
    {
      "type": "Feature",
      "properties": {
        "norad_id": 30243,
        "name": "FENGYUN 1C DEB",
        "group": "fengyun-1c-debris",
        "lat": -57.82610631782872,
        "lon": 17.247044098076994,
        "alt_km": 865.2448680522675,
        "timestamp": "2025-12-17T21:39:45.962175+00:00",
        "meta_object_name": "FENGYUN 1C DEB",
        "meta_object_id": "1999-025XC",
        "meta_epoch": "2025-12-17T14:00:39.410208",
        "meta_mean_motion": 14.13028903,
        "meta_eccentricity": 0.00131659,
        "meta_inclination": 98.693,
        "meta_ra_of_asc_node": 2.8623,
        "meta_arg_of_pericenter": 106.3594,
        "meta_mean_anomaly": 13.917,
        "meta_ephemeris_type": 0,
        "meta_classification_type": "U",
        "meta_norad_cat_id": 30243,
        "meta_element_set_no": 999,
        "meta_rev_at_epoch": 97347,
        "meta_bstar": 0.00033563471,
        "meta_mean_motion_dot": 5.84e-06,
        "meta_mean_motion_ddot": 0,
        "tle_line1": "1 30243U 99025XC  25351.58378947  .00000584  00000+0  33563-3 0  9993",
        "tle_line2": "2 30243  98.6930   2.8623 0013165 106.3594  13.9170 14.13028903973476"
      },
      "geometry": {
        "type": "Point",
        "coordinates": [
          17.247044098076994,
          -57.82610631782872
        ]
      }
    },
    {
      "type": "Feature",
      "properties": {
        "norad_id": 30244,
        "name": "FENGYUN 1C DEB",
        "group": "fengyun-1c-debris",
        "lat": 6.492829256073051,
        "lon": 62.73097825734199,
        "alt_km": 848.2946377978815,
        "timestamp": "2025-12-17T21:39:45.962184+00:00",
        "meta_object_name": "FENGYUN 1C DEB",
        "meta_object_id": "1999-025XD",
        "meta_epoch": "2025-12-17T11:30:07.744320",
        "meta_mean_motion": 14.15023213,
        "meta_eccentricity": 0.00093388,
        "meta_inclination": 99.1435,
        "meta_ra_of_asc_node": 241.2471,
        "meta_arg_of_pericenter": 301.5052,
        "meta_mean_anomaly": 236.4555,
        "meta_ephemeris_type": 0,
        "meta_classification_type": "U",
        "meta_norad_cat_id": 30244,
        "meta_element_set_no": 999,
        "meta_rev_at_epoch": 97413,
        "meta_bstar": 0.00034328257,
        "meta_mean_motion_dot": 6.18e-06,
        "meta_mean_motion_ddot": 0,
        "tle_line1": "1 30244U 99025XD  25351.47925630  .00000618  00000+0  34328-3 0  9997",
        "tle_line2": "2 30244  99.1435 241.2471 0009338 301.5052 236.4555 14.15023213974132"
      },
      "geometry": {
        "type": "Point",
        "coordinates": [
          62.73097825734199,
          6.492829256073051
        ]
      }
    },
    {
      "type": "Feature",
      "properties": {
        "norad_id": 30245,
        "name": "FENGYUN 1C DEB",
        "group": "fengyun-1c-debris",
        "lat": 7.895695945007088,
        "lon": -22.05666851463402,
        "alt_km": 1060.2441564046012,
        "timestamp": "2025-12-17T21:39:45.962193+00:00",
        "meta_object_name": "FENGYUN 1C DEB",
        "meta_object_id": "1999-025XE",
        "meta_epoch": "2025-12-17T11:10:32.677536",
        "meta_mean_motion": 13.79080131,
        "meta_eccentricity": 0.01929886,
        "meta_inclination": 98.8891,
        "meta_ra_of_asc_node": 338.7768,
        "meta_arg_of_pericenter": 238.3313,
        "meta_mean_anomaly": 119.8892,
        "meta_ephemeris_type": 0,
        "meta_classification_type": "U",
        "meta_norad_cat_id": 30245,
        "meta_element_set_no": 999,
        "meta_rev_at_epoch": 94759,
        "meta_bstar": 0.00094272773,
        "meta_mean_motion_dot": 1.066e-05,
        "meta_mean_motion_ddot": 0,
        "tle_line1": "1 30245U 99025XE  25351.46565599  .00001066  00000+0  94273-3 0  9994",
        "tle_line2": "2 30245  98.8891 338.7768 0192988 238.3313 119.8892 13.79080131947596"
      },
      "geometry": {
        "type": "Point",
        "coordinates": [
          -22.05666851463402,
          7.895695945007088
        ]
      }
    },
    {
      "type": "Feature",
      "properties": {
        "norad_id": 30246,
        "name": "FENGYUN 1C DEB",
        "group": "fengyun-1c-debris",
        "lat": 39.84373504817815,
        "lon": 127.50597662237936,
        "alt_km": 919.8287550415544,
        "timestamp": "2025-12-17T21:39:45.962202+00:00",
        "meta_object_name": "FENGYUN 1C DEB",
        "meta_object_id": "1999-025XF",
        "meta_epoch": "2025-12-17T09:09:31.072032",
        "meta_mean_motion": 13.37020898,
        "meta_eccentricity": 0.03706518,
        "meta_inclination": 98.6732,
        "meta_ra_of_asc_node": 134.3785,
        "meta_arg_of_pericenter": 88.071,
        "meta_mean_anomaly": 328.9872,
        "meta_ephemeris_type": 0,
        "meta_classification_type": "U",
        "meta_norad_cat_id": 30246,
        "meta_element_set_no": 999,
        "meta_rev_at_epoch": 92202,
        "meta_bstar": 0.00022364225,
        "meta_mean_motion_dot": 1.41e-06,
        "meta_mean_motion_ddot": 0,
        "tle_line1": "1 30246U 99025XF  25351.38160963  .00000141  00000+0  22364-3 0  9997",
        "tle_line2": "2 30246  98.6732 134.3785 0370651  88.0710 328.9872 13.37020898922024"
      },
      "geometry": {
        "type": "Point",
        "coordinates": [
          127.50597662237936,
          39.84373504817815
        ]
      }
    },
    {
      "type": "Feature",
      "properties": {
        "norad_id": 30247,
        "name": "FENGYUN 1C DEB",
        "group": "fengyun-1c-debris",
        "lat": -35.9983449138945,
        "lon": 72.97384000904181,
        "alt_km": 767.3461569426981,
        "timestamp": "2025-12-17T21:39:45.962218+00:00",
        "meta_object_name": "FENGYUN 1C DEB",
        "meta_object_id": "1999-025XG",
        "meta_epoch": "2025-12-16T16:57:19.504800",
        "meta_mean_motion": 14.5933067,
        "meta_eccentricity": 0.01932506,
        "meta_inclination": 98.2773,
        "meta_ra_of_asc_node": 257.8513,
        "meta_arg_of_pericenter": 339.8133,
        "meta_mean_anomaly": 78.0699,
        "meta_ephemeris_type": 0,
        "meta_classification_type": "U",
        "meta_norad_cat_id": 30247,
        "meta_element_set_no": 999,
        "meta_rev_at_epoch": 97340,
        "meta_bstar": 0.0025956818,
        "meta_mean_motion_dot": 0.00015915,
        "meta_mean_motion_ddot": 0,
        "tle_line1": "1 30247U 99025XG  25350.70647575  .00015915  00000+0  25957-2 0  9997",
        "tle_line2": "2 30247  98.2773 257.8513 0193250 339.8133  78.0699 14.59330670973405"
      },
      "geometry": {
        "type": "Point",
        "coordinates": [
          72.97384000904181,
          -35.9983449138945
        ]
      }
    },
    {
      "type": "Feature",
      "properties": {
        "norad_id": 30248,
        "name": "FENGYUN 1C DEB",
        "group": "fengyun-1c-debris",
        "lat": -71.20890119716961,
        "lon": -31.574375087207493,
        "alt_km": 711.937123303499,
        "timestamp": "2025-12-17T21:39:45.962228+00:00",
        "meta_object_name": "FENGYUN 1C DEB",
        "meta_object_id": "1999-025XH",
        "meta_epoch": "2025-12-17T10:38:02.353056",
        "meta_mean_motion": 14.59339808,
        "meta_eccentricity": 0.00281578,
        "meta_inclination": 99.0967,
        "meta_ra_of_asc_node": 176.0142,
        "meta_arg_of_pericenter": 136.4914,
        "meta_mean_anomaly": 223.8511,
        "meta_ephemeris_type": 0,
        "meta_classification_type": "U",
        "meta_norad_cat_id": 30248,
        "meta_element_set_no": 999,
        "meta_rev_at_epoch": 97497,
        "meta_bstar": 0.0028467168,
        "meta_mean_motion_dot": 0.00013509,
        "meta_mean_motion_ddot": 0,
        "tle_line1": "1 30248U 99025XH  25351.44308279  .00013509  00000+0  28467-2 0  9991",
        "tle_line2": "2 30248  99.0967 176.0142 0028157 136.4914 223.8511 14.59339808974979"
      },
      "geometry": {
        "type": "Point",
        "coordinates": [
          -31.574375087207493,
          -71.20890119716961
        ]
      }
    },
    {
      "type": "Feature",
      "properties": {
        "norad_id": 30249,
        "name": "FENGYUN 1C DEB",
        "group": "fengyun-1c-debris",
        "lat": -66.26780604442757,
        "lon": 177.74036924687942,
        "alt_km": 708.4735922250511,
        "timestamp": "2025-12-17T21:39:45.962237+00:00",
        "meta_object_name": "FENGYUN 1C DEB",
        "meta_object_id": "1999-025XJ",
        "meta_epoch": "2025-12-17T10:41:23.275392",
        "meta_mean_motion": 14.5780346,
        "meta_eccentricity": 0.00266103,
        "meta_inclination": 98.9583,
        "meta_ra_of_asc_node": 156.222,
        "meta_arg_of_pericenter": 26.7783,
        "meta_mean_anomaly": 27.5575,
        "meta_ephemeris_type": 0,
        "meta_classification_type": "U",
        "meta_norad_cat_id": 30249,
        "meta_element_set_no": 999,
        "meta_rev_at_epoch": 97632,
        "meta_bstar": 0.0024427168,
        "meta_mean_motion_dot": 0.00011192,
        "meta_mean_motion_ddot": 0,
        "tle_line1": "1 30249U 99025XJ  25351.44540828  .00011192  00000+0  24427-2 0  9998",
        "tle_line2": "2 30249  98.9583 156.2220 0026610  26.7783  27.5575 14.57803460976324"
      },
      "geometry": {
        "type": "Point",
        "coordinates": [
          177.74036924687942,
          -66.26780604442757
        ]
      }
    }
  ]
}